start=new Date('2023-06-19T00:00:00.000Z').valueOf();
sats=[{"LAUNCH_DATE":"2021-09-14","PERIAPSIS":"569.652","ECCENTRICITY":"0.00034500","MEAN_ELEMENT_THEORY":"SGP4","SEMIMAJOR_AXIS":"6950.185","TIME_SYSTEM":"UTC","APOAPSIS":"574.448","OBJECT_NAME":"STARLINK-3102","MEAN_MOTION_DDOT":"0.0000000000000","ELEMENT_SET_NO":"999","REV_AT_EPOCH":"9909","DECAY_DATE":null,"CLASSIFICATION_TYPE":"U","BSTAR":"-0.00008103100000","TLE_LINE1":"1 49151U 21082X   23169.45168768 -.00001060  00000-0 -81031-4 0  9995","PERIOD":"96.107","SITE":"AFWTR","GP_ID":"234215775","EPOCH":"2023-06-18T10:50:25.815552","NORAD_CAT_ID":"49151","TLE_LINE2":"2 49151  69.9992 243.7941 0003450 270.7276  89.3487 14.98332509 99099","ARG_OF_PERICENTER":"270.7276","INCLINATION":"69.9992","COUNTRY_CODE":"US","OBJECT_TYPE":"PAYLOAD","MEAN_ANOMALY":"89.3487","RA_OF_ASC_NODE":"243.7941","CENTER_NAME":"EARTH","REF_FRAME":"TEME","FILE":"3936432","RCS_SIZE":"LARGE","OBJECT_ID":"2021-082X","EPHEMERIS_TYPE":"0","MEAN_MOTION_DOT":"-0.00001060","MEAN_MOTION":"14.98332509"},{"SEMIMAJOR_AXIS":"6950.165","MEAN_ELEMENT_THEORY":"SGP4","ECCENTRICITY":"0.00035500","LAUNCH_DATE":"2021-09-14","PERIAPSIS":"569.563","ELEMENT_SET_NO":"999","MEAN_MOTION_DDOT":"0.0000000000000","OBJECT_NAME":"STARLINK-3081","APOAPSIS":"574.497","TIME_SYSTEM":"UTC","SITE":"AFWTR","NORAD_CAT_ID":"49152","EPOCH":"2023-06-18T15:02:46.533408","GP_ID":"234245295","DECAY_DATE":null,"CLASSIFICATION_TYPE":"U","REV_AT_EPOCH":"9903","PERIOD":"96.106","TLE_LINE1":"1 49152U 21082Y   23169.62692747  .00000163  00000-0  21452-4 0  9996","BSTAR":"0.00002145200000","EPHEMERIS_TYPE":"0","OBJECT_ID":"2021-082Y","RCS_SIZE":"LARGE","FILE":"3936745","MEAN_MOTION":"14.98339071","MEAN_MOTION_DOT":"0.00000163","INCLINATION":"69.9985","ARG_OF_PERICENTER":"268.2378","TLE_LINE2":"2 49152  69.9985 243.3447 0003550 268.2378  91.8374 14.98339071 99033","REF_FRAME":"TEME","CENTER_NAME":"EARTH","OBJECT_TYPE":"PAYLOAD","RA_OF_ASC_NODE":"243.3447","MEAN_ANOMALY":"91.8374","COUNTRY_CODE":"US"},{"COUNTRY_CODE":"US","MEAN_ANOMALY":"90.4705","OBJECT_TYPE":"PAYLOAD","RA_OF_ASC_NODE":"243.3164","CENTER_NAME":"EARTH","REF_FRAME":"TEME","TLE_LINE2":"2 49153  69.9986 243.3164 0003952 269.6001  90.4705 14.98336875 99127","ARG_OF_PERICENTER":"269.6001","INCLINATION":"69.9986","MEAN_MOTION_DOT":"0.00000068","MEAN_MOTION":"14.98336875","FILE":"3936745","RCS_SIZE":"LARGE","OBJECT_ID":"2021-082Z","EPHEMERIS_TYPE":"0","BSTAR":"0.00001347500000","TLE_LINE1":"1 49153U 21082Z   23169.64361899  .00000068  00000-0  13475-4 0  9990","PERIOD":"96.107","REV_AT_EPOCH":"9912","CLASSIFICATION_TYPE":"U","DECAY_DATE":null,"EPOCH":"2023-06-18T15:26:48.680736","GP_ID":"234244552","NORAD_CAT_ID":"49153","SITE":"AFWTR","TIME_SYSTEM":"UTC","APOAPSIS":"574.783","OBJECT_NAME":"STARLINK-3072","ELEMENT_SET_NO":"999","MEAN_MOTION_DDOT":"0.0000000000000","PERIAPSIS":"569.290","LAUNCH_DATE":"2021-09-14","ECCENTRICITY":"0.00039520","MEAN_ELEMENT_THEORY":"SGP4","SEMIMAJOR_AXIS":"6950.172"},{"MEAN_MOTION_DDOT":"0.0000000000000","ELEMENT_SET_NO":"999","OBJECT_NAME":"STARLINK-3068","APOAPSIS":"574.546","TIME_SYSTEM":"UTC","SEMIMAJOR_AXIS":"6950.171","MEAN_ELEMENT_THEORY":"SGP4","ECCENTRICITY":"0.00036120","PERIAPSIS":"569.526","LAUNCH_DATE":"2021-09-14","MEAN_MOTION":"14.98337092","MEAN_MOTION_DOT":"-0.00000374","OBJECT_ID":"2021-082AA","EPHEMERIS_TYPE":"0","RCS_SIZE":"LARGE","FILE":"3936745","REF_FRAME":"TEME","CENTER_NAME":"EARTH","RA_OF_ASC_NODE":"263.2421","OBJECT_TYPE":"PAYLOAD","MEAN_ANOMALY":"93.8462","COUNTRY_CODE":"US","INCLINATION":"69.9986","TLE_LINE2":"2 49154  69.9986 263.2421 0003612 266.2284  93.8462 14.98337092 98504","ARG_OF_PERICENTER":"266.2284","NORAD_CAT_ID":"49154","GP_ID":"234244303","EPOCH":"2023-06-18T16:03:11.708928","SITE":"AFWTR","PERIOD":"96.107","TLE_LINE1":"1 49154U 21082AA  23169.66888552 -.00000374  00000-0 -23501-4 0  9996","BSTAR":"-0.00002350100000","DECAY_DATE":null,"CLASSIFICATION_TYPE":"U","REV_AT_EPOCH":"9850"},{"ECCENTRICITY":"0.00036070","LAUNCH_DATE":"2021-09-14","PERIAPSIS":"569.520","MEAN_ELEMENT_THEORY":"SGP4","SEMIMAJOR_AXIS":"6950.162","APOAPSIS":"574.534","TIME_SYSTEM":"UTC","OBJECT_NAME":"STARLINK-3060","MEAN_MOTION_DDOT":"0.0000000000000","ELEMENT_SET_NO":"999","TLE_LINE1":"1 49155U 21082AB  23169.63944403 -.00000191  00000-0 -82098-5 0  9996","BSTAR":"-0.00000820980000","PERIOD":"96.106","REV_AT_EPOCH":"9899","CLASSIFICATION_TYPE":"U","DECAY_DATE":null,"NORAD_CAT_ID":"49155","GP_ID":"234245052","EPOCH":"2023-06-18T15:20:47.964192","SITE":"AFWTR","OBJECT_TYPE":"PAYLOAD","RA_OF_ASC_NODE":"243.3308","MEAN_ANOMALY":"92.8581","COUNTRY_CODE":"US","REF_FRAME":"TEME","CENTER_NAME":"EARTH","ARG_OF_PERICENTER":"267.2165","TLE_LINE2":"2 49155  69.9988 243.3308 0003607 267.2165  92.8581 14.98339928 98997","INCLINATION":"69.9988","MEAN_MOTION_DOT":"-0.00000191","MEAN_MOTION":"14.98339928","RCS_SIZE":"LARGE","FILE":"3936745","EPHEMERIS_TYPE":"0","OBJECT_ID":"2021-082AB"},{"COUNTRY_CODE":"US","MEAN_ANOMALY":"92.8608","OBJECT_TYPE":"PAYLOAD","RA_OF_ASC_NODE":"243.7107","CENTER_NAME":"EARTH","REF_FRAME":"TEME","TLE_LINE2":"2 49156  69.9984 243.7107 0003630 267.2135  92.8608 14.98337384 98970","ARG_OF_PERICENTER":"267.2135","INCLINATION":"69.9984","MEAN_MOTION_DOT":"-0.00000440","MEAN_MOTION":"14.98337384","FILE":"3936745","RCS_SIZE":"LARGE","OBJECT_ID":"2021-082AC","EPHEMERIS_TYPE":"0","BSTAR":"-0.00002908200000","TLE_LINE1":"1 49156U 21082AC  23169.48506417 -.00000440  00000-0 -29082-4 0  9999","PERIOD":"96.107","REV_AT_EPOCH":"9897","DECAY_DATE":null,"CLASSIFICATION_TYPE":"U","GP_ID":"234245795","EPOCH":"2023-06-18T11:38:29.544288","NORAD_CAT_ID":"49156","SITE":"AFWTR","TIME_SYSTEM":"UTC","APOAPSIS":"574.558","OBJECT_NAME":"STARLINK-3085","ELEMENT_SET_NO":"999","MEAN_MOTION_DDOT":"0.0000000000000","PERIAPSIS":"569.512","LAUNCH_DATE":"2021-09-14","ECCENTRICITY":"0.00036300","MEAN_ELEMENT_THEORY":"SGP4","SEMIMAJOR_AXIS":"6950.170"},{"REF_FRAME":"TEME","CENTER_NAME":"EARTH","RA_OF_ASC_NODE":"263.5929","OBJECT_TYPE":"PAYLOAD","MEAN_ANOMALY":"90.3324","COUNTRY_CODE":"US","INCLINATION":"69.9985","TLE_LINE2":"2 49157  69.9985 263.5929 0003597 269.7422  90.3324 14.98336342 98502","ARG_OF_PERICENTER":"269.7422","MEAN_MOTION":"14.98336342","MEAN_MOTION_DOT":"-0.00000622","OBJECT_ID":"2021-082AD","EPHEMERIS_TYPE":"0","RCS_SIZE":"LARGE","FILE":"3936542","PERIOD":"96.107","TLE_LINE1":"1 49157U 21082AD  23169.53119559 -.00000622  00000-0 -44358-4 0  9998","BSTAR":"-0.00004435800000","CLASSIFICATION_TYPE":"U","DECAY_DATE":null,"REV_AT_EPOCH":"9850","NORAD_CAT_ID":"49157","EPOCH":"2023-06-18T12:44:55.298976","GP_ID":"234217050","SITE":"AFWTR","APOAPSIS":"574.538","TIME_SYSTEM":"UTC","ELEMENT_SET_NO":"999","MEAN_MOTION_DDOT":"0.0000000000000","OBJECT_NAME":"STARLINK-3051","ECCENTRICITY":"0.00035970","LAUNCH_DATE":"2021-09-14","PERIAPSIS":"569.538","SEMIMAJOR_AXIS":"6950.173","MEAN_ELEMENT_THEORY":"SGP4"},{"REF_FRAME":"TEME","CENTER_NAME":"EARTH","OBJECT_TYPE":"PAYLOAD","MEAN_ANOMALY":"86.1180","RA_OF_ASC_NODE":"263.2660","COUNTRY_CODE":"US","INCLINATION":"69.9995","ARG_OF_PERICENTER":"273.9467","TLE_LINE2":"2 49158  69.9995 263.2660 0004481 273.9467  86.1180 14.98543251 98515","MEAN_MOTION":"14.98543251","MEAN_MOTION_DOT":"0.00017251","EPHEMERIS_TYPE":"0","OBJECT_ID":"2021-082AE","RCS_SIZE":"LARGE","FILE":"3936420","PERIOD":"96.093","TLE_LINE1":"1 49158U 21082AE  23169.55106678  .00017251  00000-0  14419-2 0  9996","BSTAR":"0.00144190000000","DECAY_DATE":null,"CLASSIFICATION_TYPE":"U","REV_AT_EPOCH":"9851","NORAD_CAT_ID":"49158","EPOCH":"2023-06-18T13:13:32.169792","GP_ID":"234210838","SITE":"AFWTR","APOAPSIS":"574.513","TIME_SYSTEM":"UTC","MEAN_MOTION_DDOT":"0.0000000000000","ELEMENT_SET_NO":"999","OBJECT_NAME":"STARLINK-3083","ECCENTRICITY":"0.00044810","PERIAPSIS":"568.284","LAUNCH_DATE":"2021-09-14","SEMIMAJOR_AXIS":"6949.534","MEAN_ELEMENT_THEORY":"SGP4"},{"REF_FRAME":"TEME","CENTER_NAME":"EARTH","RA_OF_ASC_NODE":"283.5197","OBJECT_TYPE":"PAYLOAD","MEAN_ANOMALY":"92.9585","COUNTRY_CODE":"US","INCLINATION":"69.9999","TLE_LINE2":"2 49159  69.9999 283.5197 0003278 267.1199  92.9585 14.98334344 98010","ARG_OF_PERICENTER":"267.1199","MEAN_MOTION":"14.98334344","MEAN_MOTION_DOT":"-0.00000481","OBJECT_ID":"2021-082AF","EPHEMERIS_TYPE":"0","RCS_SIZE":"LARGE","FILE":"3936420","PERIOD":"96.107","TLE_LINE1":"1 49159U 21082AF  23169.56480855 -.00000481  00000-0 -32519-4 0  9992","BSTAR":"-0.00003251900000","CLASSIFICATION_TYPE":"U","DECAY_DATE":null,"REV_AT_EPOCH":"9801","NORAD_CAT_ID":"49159","GP_ID":"234210567","EPOCH":"2023-06-18T13:33:19.458720","SITE":"AFWTR","APOAPSIS":"574.323","TIME_SYSTEM":"UTC","MEAN_MOTION_DDOT":"0.0000000000000","ELEMENT_SET_NO":"999","OBJECT_NAME":"STARLINK-3056","ECCENTRICITY":"0.00032780","PERIAPSIS":"569.766","LAUNCH_DATE":"2021-09-14","SEMIMAJOR_AXIS":"6950.179","MEAN_ELEMENT_THEORY":"SGP4"},{"INCLINATION":"69.9996","ARG_OF_PERICENTER":"268.2857","TLE_LINE2":"2 49160  69.9996 283.0275 0003313 268.2857  91.7923 14.98338179 98028","REF_FRAME":"TEME","CENTER_NAME":"EARTH","RA_OF_ASC_NODE":"283.0275","OBJECT_TYPE":"PAYLOAD","MEAN_ANOMALY":"91.7923","COUNTRY_CODE":"US","EPHEMERIS_TYPE":"0","OBJECT_ID":"2021-082AG","RCS_SIZE":"LARGE","FILE":"3936504","MEAN_MOTION":"14.98338179","MEAN_MOTION_DOT":"0.00000114","DECAY_DATE":null,"CLASSIFICATION_TYPE":"U","REV_AT_EPOCH":"9802","PERIOD":"96.106","TLE_LINE1":"1 49160U 21082AG  23169.75256728  .00000114  00000-0  17356-4 0  9998","BSTAR":"0.00001735600000","SITE":"AFWTR","NORAD_CAT_ID":"49160","GP_ID":"234217677","EPOCH":"2023-06-18T18:03:41.812992","APOAPSIS":"574.335","TIME_SYSTEM":"UTC","ELEMENT_SET_NO":"999","MEAN_MOTION_DDOT":"0.0000000000000","OBJECT_NAME":"STARLINK-3095","ECCENTRICITY":"0.00033130","PERIAPSIS":"569.730","LAUNCH_DATE":"2021-09-14","SEMIMAJOR_AXIS":"6950.168","MEAN_ELEMENT_THEORY":"SGP4"}];
